NORAD_CAT_ID,OBJECT_NAME,OBJECT_TYPE,EPOCH,MEAN_MOTION,ECCENTRICITY,INCLINATION,RA_OF_ASC_NODE,ARG_OF_PERICENTER,MEAN_ANOMALY,BSTAR,MEAN_MOTION_DOT,MEAN_MOTION_DDOT,TLE_LINE0,TLE_LINE1,TLE_LINE2,SEMIMAJOR_AXIS,PERIOD,APOGEE,PERIGEE,DECAYED
53735.0,STARLINK-4618,PAYLOAD,2024-06-29 07:44:37,15.08838195,0.0001173,53.2156,159.8926,92.3508,267.7619,5.7169e-05,6.22e-06,0.0,0 STARLINK-4618,1 53735U 22107AM  24181.32265479  .00000622  00000-0  57169-4 0  9991,2 53735  53.2156 159.8926 0001173  92.3508 267.7619 15.08838195100463,6917.886,95.438,540.562,538.939,0.0
53735.0,STARLINK-4618,PAYLOAD,2024-06-29 15:41:32,15.08842268,0.0001189,53.2158,158.4058,81.1679,278.9447,7.3877e-05,8.88e-06,0.0,0 STARLINK-4618,1 53735U 22107AM  24181.65385243  .00000888  00000-0  73877-4 0  9997,2 53735  53.2158 158.4058 0001189  81.1679 278.9447 15.08842268101143,6917.873,95.437,540.561,538.916,0.0
53735.0,STARLINK-4618,PAYLOAD,2024-06-30 07:35:24,15.08839284,0.0001236,53.2153,155.432,83.9831,276.1302,3.8236e-05,3.21e-06,0.0,0 STARLINK-4618,1 53735U 22107AM  24182.31625663  .00000321  00000-0  38236-4 0  9996,2 53735  53.2153 155.4320 0001236  83.9831 276.1302 15.08839284101245,6917.883,95.438,540.603,538.893,0.0
53735.0,STARLINK-4618,PAYLOAD,2024-06-30 15:32:19,15.08842735,0.0001283,53.216,153.946,83.0117,277.1021,8.3782e-05,1.046e-05,0.0,0 STARLINK-4618,1 53735U 22107AM  24182.64745347  .00001046  00000-0  83782-4 0  9995,2 53735  53.2160 153.9460 0001283  83.0117 277.1021 15.08842735100660,6917.872,95.437,540.625,538.849,0.0
53735.0,STARLINK-4618,PAYLOAD,2024-07-01 04:15:27,15.0880755,0.0001298,53.2172,151.5659,89.7499,270.3642,-0.00019704,-3.42e-05,0.0,0 STARLINK-4618,1 53735U 22107AM  24183.17740449 -.00003420  00000-0 -19704-3 0  9994,2 53735  53.2172 151.5659 0001298  89.7499 270.3642 15.08807550100748,6917.98,95.44,540.743,538.947,0.0
53735.0,STARLINK-4618,PAYLOAD,2024-07-01 21:44:41,15.08822739,6.2e-05,53.2166,148.2968,98.7445,261.3618,2.861e-05,1.68e-06,0.0,0 STARLINK-4618,1 53735U 22107AM  24183.90603712  .00000168  00000-0  28610-4 0  9997,2 53735  53.2166 148.2968 0000620  98.7445 261.3618 15.08822739101487,6917.933,95.439,540.227,539.369,0.0
53735.0,STARLINK-4618,PAYLOAD,2024-07-02 04:06:13,15.08844701,0.0001324,53.217,147.1063,99.0805,261.0337,0.00013155,1.807e-05,0.0,0 STARLINK-4618,1 53735U 22107AM  24184.17098380  .00001807  00000-0  13155-3 0  9994,2 53735  53.2170 147.1063 0001324  99.0805 261.0337 15.08844701100894,6917.866,95.437,540.647,538.815,0.0
53735.0,STARLINK-4618,PAYLOAD,2024-07-03 07:07:46,15.0883383,0.0001249,53.2171,142.0511,107.5189,252.594,0.00038022,5.767e-05,0.0,0 STARLINK-4618,1 53735U 22107AM  24185.29706086  .00005767  00000-0  38022-3 0  9996,2 53735  53.2171 142.0511 0001249 107.5189 252.5940 15.08833830101069,6917.899,95.438,540.628,538.9,0.0
53735.0,STARLINK-4618,PAYLOAD,2024-07-04 13:20:06,15.08803278,0.0001108,53.217,136.3984,108.1972,251.9141,0.00071166,0.00011045,0.0,0 STARLINK-4618,1 53735U 22107AM  24186.55563264  .00011045  00000-0  71166-3 0  9997,2 53735  53.2170 136.3984 0001108 108.1972 251.9141 15.08803278101888,6917.993,95.44,540.624,539.091,0.0
53735.0,STARLINK-4618,PAYLOAD,2024-07-04 19:41:38,15.08853273,0.0001326,53.2184,135.2173,86.1877,273.9267,-8.4904e-05,-1.639e-05,0.0,0 STARLINK-4618,1 53735U 22107AM  24186.82058154 -.00001639  00000-0 -84904-4 0  9999,2 53735  53.2184 135.2173 0001326  86.1877 273.9267 15.08853273101290,6917.84,95.437,540.622,538.788,0.0
53735.0,STARLINK-4618,PAYLOAD,2024-07-05 13:10:51,15.08857358,0.0001394,53.2188,131.9446,83.9776,276.1375,5.629e-06,-1.98e-06,0.0,0 STARLINK-4618,1 53735U 22107AM  24187.54921162 -.00000198  00000-0  56290-5 0  9993,2 53735  53.2188 131.9446 0001394  83.9776 276.1375 15.08857358102034,6917.827,95.436,540.657,538.728,0.0
53735.0,STARLINK-4618,PAYLOAD,2024-07-05 21:07:49,15.08829388,0.0001604,53.2185,130.4593,107.6005,252.5163,-2.076e-05,-6.18e-06,0.0,0 STARLINK-4618,1 53735U 22107AM  24187.88043085 -.00000618  00000-0 -20760-4 0  9999,2 53735  53.2185 130.4593 0001604 107.6005 252.5163 15.08829388101451,6917.913,95.438,540.887,538.668,0.0
53735.0,STARLINK-4618,PAYLOAD,2024-07-06 13:01:39,15.08843587,0.0001499,53.2188,127.4841,95.7032,264.4131,4.3587e-05,4.06e-06,0.0,0 STARLINK-4618,1 53735U 22107AM  24188.54282176  .00000406  00000-0  43587-4 0  9994,2 53735  53.2188 127.4841 0001499  95.7032 264.4131 15.08843587101550,6917.869,95.437,540.771,538.697,0.0
53735.0,STARLINK-4618,PAYLOAD,2024-07-07 04:55:31,15.08837599,0.0001368,53.2173,124.506,83.1039,277.0109,1.878e-05,1.1e-07,0.0,0 STARLINK-4618,1 53735U 22107AM  24189.20522914  .00000011  00000-0  18780-4 0  9994,2 53735  53.2173 124.5060 0001368  83.1039 277.0109 15.08837599101650,6917.888,95.438,540.699,538.806,0.0
53735.0,STARLINK-4618,PAYLOAD,2024-07-08 12:43:13,15.08850612,0.0001313,53.2173,118.559,96.7854,263.3288,0.00015685,2.21e-05,0.0,0 STARLINK-4618,1 53735U 22107AM  24190.53001668  .00002210  00000-0  15685-3 0  9993,2 53735  53.2173 118.5590 0001313  96.7854 263.3288 15.08850612101855,6917.848,95.437,540.621,538.805,0.0
53735.0,STARLINK-4618,PAYLOAD,2024-07-08 19:04:46,15.08838492,0.0001951,53.2178,117.371,85.1137,275.0078,0.00014648,2.044e-05,0.0,0 STARLINK-4618,1 53735U 22107AM  24190.79498646  .00002044  00000-0  14648-3 0  9990,2 53735  53.2178 117.3710 0001951  85.1137 275.0078 15.08838492101898,6917.885,95.438,541.1,538.4,0.0
53735.0,STARLINK-4618,PAYLOAD,2024-07-09 12:34:00,15.08847327,0.0001389,53.2179,114.0992,95.4881,264.6269,0.00010942,1.454e-05,0.0,0 STARLINK-4618,1 53735U 22107AM  24191.52362104  .00001454  00000-0  10942-3 0  9998,2 53735  53.2179 114.0992 0001389  95.4881 264.6269 15.08847327102636,6917.858,95.437,540.684,538.762,0.0
53735.0,STARLINK-4618,PAYLOAD,2024-07-09 22:06:20,15.08840093,0.0001739,53.2176,112.3146,116.8723,243.2447,2.4481e-05,1.02e-06,0.0,0 STARLINK-4618,1 53735U 22107AM  24191.92106837  .00000102  00000-0  24481-4 0  9994,2 53735  53.2176 112.3146 0001739 116.8723 243.2447 15.08840093102697,6917.88,95.438,540.948,538.542,0.0
53735.0,STARLINK-4618,PAYLOAD,2024-07-10 04:27:53,15.08838138,0.0001407,53.2172,111.1236,100.5988,259.5163,-5.1692e-05,-1.11e-05,0.0,0 STARLINK-4618,1 53735U 22107AM  24192.18603186 -.00001110  00000-0 -51692-4 0  9998,2 53735  53.2172 111.1236 0001407 100.5988 259.5163 15.08838138102103,6917.886,95.438,540.724,538.778,0.0
53735.0,STARLINK-4618,PAYLOAD,2024-07-10 21:57:07,15.088379,0.0001439,53.2164,107.8548,97.3796,262.7359,0.00013505,1.862e-05,0.0,0 STARLINK-4618,1 53735U 22107AM  24192.91466861  .00001862  00000-0  13505-3 0  9998,2 53735  53.2164 107.8548 0001439  97.3796 262.7359 15.08837900102847,6917.887,95.438,540.747,538.756,0.0
53735.0,STARLINK-4618,PAYLOAD,2024-07-11 04:18:39,15.08843362,0.0001451,53.2172,106.664,100.4309,259.6846,0.00014564,2.031e-05,0.0,0 STARLINK-4618,1 53735U 22107AM  24193.17962777  .00002031  00000-0  14564-3 0  9999,2 53735  53.2172 106.6640 0001451 100.4309 259.6846 15.08843362102885,6917.87,95.437,540.739,538.731,0.0
53735.0,STARLINK-4618,PAYLOAD,2024-07-12 04:09:27,15.08838614,0.0001299,53.2166,102.2045,77.2905,282.8232,0.00012323,1.674e-05,0.0,0 STARLINK-4618,1 53735U 22107AM  24194.17323317  .00001674  00000-0  12323-3 0  9994,2 53735  53.2166 102.2045 0001299  77.2905 282.8232 15.08838614102401,6917.885,95.438,540.648,538.851,0.0
53735.0,STARLINK-4618,PAYLOAD,2024-07-12 10:30:59,15.08847062,0.0001348,53.2171,101.0179,88.1238,271.9909,0.00022768,3.338e-05,0.0,0 STARLINK-4618,1 53735U 22107AM  24194.43818836  .00003338  00000-0  22768-3 0  9991,2 53735  53.2171 101.0179 0001348  88.1238 271.9909 15.08847062103078,6917.859,95.437,540.656,538.791,0.0
53735.0,STARLINK-4618,PAYLOAD,2024-07-12 21:38:42,15.08838131,0.0001706,53.2178,98.9412,113.7571,246.36,-2.0103e-05,-6.08e-06,0.0,0 STARLINK-4618,1 53735U 22107AM  24194.90187535 -.00000608  00000-0 -20103-4 0  9999,2 53735  53.2178  98.9412 0001706 113.7571 246.3600 15.08838131103141,6917.886,95.438,540.931,538.571,0.0
53735.0,STARLINK-4618,PAYLOAD,2024-07-13 10:21:46,15.08852406,0.0001355,53.2173,96.5556,83.3511,276.7635,0.00024378,3.595e-05,0.0,0 STARLINK-4618,1 53735U 22107AM  24195.43178617  .00003595  00000-0  24378-3 0  9992,2 53735  53.2173  96.5556 0001355  83.3511 276.7635 15.08852406102599,6917.842,95.437,540.645,538.77,0.0
53735.0,STARLINK-4618,PAYLOAD,2024-07-13 21:29:28,15.08839065,0.0001423,53.2166,94.4755,86.6384,273.4771,1.7128e-05,-1.5e-07,0.0,0 STARLINK-4618,1 53735U 22107AM  24195.89547397 -.00000015  00000-0  17128-4 0  9998,2 53735  53.2166  94.4755 0001423  86.6384 273.4771 15.08839065102668,6917.883,95.438,540.733,538.764,0.0
53735.0,STARLINK-4618,PAYLOAD,2024-07-14 03:51:00,15.08852845,0.00013,53.2161,93.2858,86.3668,273.7472,0.0003248,4.887e-05,0.0,0 STARLINK-4618,1 53735U 22107AM  24196.16042774  .00004887  00000-0  32480-3 0  9995,2 53735  53.2161  93.2858 0001300  86.3668 273.7472 15.08852845102707,6917.841,95.437,540.605,538.807,0.0
53735.0,STARLINK-4618,PAYLOAD,2024-07-14 13:23:20,15.08833214,0.0001202,53.2155,91.5016,99.8949,260.2179,-0.00011894,-2.18e-05,0.0,0 STARLINK-4618,1 53735U 22107AM  24196.55787211 -.00002180  00000-0 -11894-3 0  9992,2 53735  53.2155  91.5016 0001202  99.8949 260.2179 15.08833214103399,6917.901,95.438,540.598,538.935,0.0
53735.0,STARLINK-4618,PAYLOAD,2024-07-14 21:20:15,15.08850324,0.0001188,53.2153,90.0144,102.0872,258.0253,0.0014272,0.00022505,0.0,0 STARLINK-4618,1 53735U 22107AM  24196.88907203  .00022505  00000-0  14272-2 0  9996,2 53735  53.2153  90.0144 0001188 102.0872 258.0253 15.08850324102813,6917.849,95.437,540.536,538.892,0.0
53735.0,STARLINK-4618,PAYLOAD,2024-07-15 13:14:06,15.08832882,0.0001199,53.2155,87.04,95.8516,264.2613,-0.00060003,-9.823e-05,0.0,0 STARLINK-4618,1 53735U 22107AM  24197.55146949 -.00009823  00000-0 -60003-3 0  9997,2 53735  53.2155  87.0400 0001199  95.8516 264.2613 15.08832882102911,6917.902,95.438,540.597,538.938,0.0
